#dP2024 11  5 12  0  0.00000000      96 __u+U IGS20 EXT  IAC
## 2339 216000.00000000   900.00000000 60619 0.5000000000000
+   52   G02G03G04G05G06G07G08G09G10G11G12G13G14G15G16G17G18
+        G19G20G21G22G23G24G25G26G27G28G29G30G31G32R01R02R03
+        R04R05R07R08R09R11R12R14R15R16R17R18R19R20R21R22R24
+        R26  0  0  0  0  0  0  0  0  0  0  0  0  0  0  0  0
+          0  0  0  0  0  0  0  0  0  0  0  0  0  0  0  0  0
++         7  7  8  6  7  6  7  7  7  7  8  7  7  7  8  7  7
++         8  8  7  7  7  8  7  9  7  8  8  6  8  7  8  9  7
++         9  8  8  8  8 11  9  9  8  9  7  8  7  9  7  7  7
++         9  0  0  0  0  0  0  0  0  0  0  0  0  0  0  0  0
++         0  0  0  0  0  0  0  0  0  0  0  0  0  0  0  0  0
%c M  cc GPS ccc cccc cccc cccc cccc ccccc ccccc ccccc ccccc
%c cc cc ccc ccc cccc cccc cccc cccc ccccc ccccc ccccc ccccc
%f  0.0000000  0.000000000  0.00000000000  0.000000000000000
%f  0.0000000  0.000000000  0.00000000000  0.000000000000000
%i    0    0    0    0      0      0      0      0         0
%i    0    0    0    0      0      0      0      0         0
/* IAC                                ULTRA-RAPID PREDICTION
/* S/V CLOCKS ARE ALIGNED TO GNSS TIME                      
/* G:C1WC2W R:C1PC2P E:C1XC5X C:C2IC6I J:C1CC2S             
/* PCV:IGS20_2317 OL/AL:FES2004  NONE     YN ORB:CoN CLK:CoN
*  2024 11 06  0  0  0.00000000
PG02  14194.090124 -22207.275095   -222.492263   -321.055782
PG03   9238.993332 -12965.609063 -21404.178527    591.828232
PG04   3027.469693 -21668.772377 -14938.202026    474.498023
PG05 -23139.282213   5841.190447  11547.285051   -192.098782
PG06 -14153.523213  -5249.634786 -21795.670831    -92.571968
PG07   1486.232332 -21041.846598  16389.064135    -22.001309
PG08  10874.241365 -12045.831642  20830.270689    405.574549
PG09  -5649.756942 -24991.661487  -6954.540529    430.755985
PG10  21894.201656  10591.407865  11294.018928   -184.954978
PG11 -20393.161117   8025.867483 -14921.457685   -748.669211
PG12 -14110.901516  11176.995862 -19797.532428   -550.134236
PG13 -14578.613628   2949.204185  21776.034831    684.778890
PG14 -18800.387583 -13029.763240  13737.250998    533.546892
PG15  -8916.612277  13955.715388  20215.724368    224.336737
PG16  25589.974659    349.437960   7576.766215   -135.885139
PG17 -13294.186231 -21132.050585  -8356.743632    569.546220
PG18   -857.701998  19937.940761  17439.977038   -659.895469
PG19 -15999.585546 -13526.867003 -16720.220911    559.325120
PG20 -26449.692084   1257.138688    136.080290    368.998427
PG21  16854.495858 -19037.466036   5735.127675     98.139417
PG22 -23298.116767 -10440.215662   7113.944330    -77.139931
PG23   9729.629730  14554.984682  20077.884729    357.157871
PG24 -14372.517116  22041.302885    654.569606   -481.789994
PG25    921.779459  15755.756857 -21730.378283    499.191962
PG26  26016.671137   4628.132609  -4446.499269     36.088196
PG27  15978.147195     69.334715  20986.620957    -34.746216
PG28  13366.519676   7421.646068 -21734.715612   -469.810709
PG29   2528.326410  25212.588240  -7790.972388   -565.967037
PG30  -8383.894411 -14305.122833  20852.915540   -287.836452
PG31  19464.707066  -3605.325771 -18121.026249   -222.252580
PG32  15740.728743  18702.399156 -10420.625990   -577.645354
PR01  -9680.278475   5623.331896  22916.073592    103.471479
PR02   4194.150002  17288.763953  18354.357455    -25.504696
PR03  16091.228826  19577.337159   3255.798822    110.826443
PR04  18595.174062  11438.083735 -13189.285459    262.649162
PR05  11435.008815  -2883.300574 -22616.567658    140.261887
PR07 -16271.298478 -19416.494307  -2670.438477     94.401985
PR08 -18699.288646 -10933.989185  13489.705147     -6.308066
PR09   7767.445554 -12686.999679  20715.410249    218.873550
PR11 -22565.424447   -392.591434  11913.416244      7.557036
PR12 -22641.805029   9002.115035  -7504.267415     46.899130
PR14  10450.497117   8308.258376 -21721.670247     27.163549
PR15  23328.897006   -373.344983 -10285.938515     74.392094
PR16  22681.528038  -8980.687806   7400.813887     30.555043
PR17   3234.555983  17559.426300  18210.793277    137.277132
PR18  10430.138774   2000.463065  23213.116579    170.464712
PR19  13132.380634 -12788.666249  17751.227830   -297.438353
PR20   7988.761257 -24136.798933  -1826.415260   -121.515268
PR21  -2446.552751 -18328.768247 -17579.760741   -148.881268
PR22 -11171.599044  -1004.292263 -22878.096974     -1.112249
PR24  -6508.648417  24538.737493   2380.032652    -78.955480
PR26 -19008.950556 -12122.570737  11962.755149   -115.817997
*  2024 11 06  0 15  0.00000000
PG02  14374.707083 -21993.742785   2661.796779   -321.048190
PG03  11573.228016 -12649.015730 -20419.405814    591.837931
PG04   3876.109635 -20040.072659 -16899.272877    474.503907
PG05 -24323.099900   5583.936642   9006.561764   -192.099790
PG06 -12653.784551  -7274.839764 -22122.774012    -92.597812
PG07   2654.016544 -22288.548334  14365.699983    -21.999035
PG08  12022.069609  -9881.645133  21368.645111    405.584086
PG09  -5025.964676 -24250.959501  -9596.156465    430.771160
PG10  20506.902234  10567.102890  13682.974185   -184.967740
PG11 -19386.112430   6491.931154 -16882.166393   -748.671042
PG12 -16192.307322  10695.503290 -18397.078243   -550.136495
PG13 -15259.803920    519.720076  21524.893017    684.780351
PG14 -17110.777028 -13023.442888  15783.909597    533.554299
PG15 -10334.141021  11934.918414  20824.252305    224.340801
PG16  26279.630123    701.196114   4864.657065   -135.876330
PG17 -13363.801593 -22019.090468  -5632.453495    569.533557
PG18  -2116.321757  21352.413843  15532.186475   -659.896101
PG19 -16414.773864 -15242.982689 -14742.547607    559.329188
PG20 -26314.970992    966.378375  -2714.374568    368.998100
PG21  16722.559065 -18195.182361   8492.749694     98.138626
PG22 -22342.566701 -10509.867058   9762.837296    -77.142695
PG23   7392.946834  14436.909031  21114.069235    357.165069
PG24 -14542.979487  21608.283393   3466.085040   -481.788297
PG25  -1490.407883  15553.935851 -21822.137163    499.191726
PG26  25373.525428   4913.252084  -7115.304743     36.076568
PG27  16925.007440   2283.190528  20153.101650    -34.746263
PG28  11974.224867   9479.119578 -21746.118185   -469.821621
PG29   1970.194613  24309.855181 -10408.006704   -565.964500
PG30  -6938.976582 -16126.248328  20008.406345   -287.829524
PG31  18287.166752  -1862.510142 -19540.007588   -222.252076
PG32  15989.698984  19761.889892  -7836.312271   -577.640845
PR01 -11722.973447   3717.146502  22343.997823    103.472620
PR02   2619.685243  15520.749542  20137.484568    -25.504550
PR03  15794.551922  19041.305898   6400.496657    110.827195
PR04  19724.918612  12377.225472 -10415.399565    262.650736
PR05  13372.790874   -949.209536 -21702.010120    140.262435
PR07 -16010.898310 -18927.524072  -5839.583651     94.402738
PR08 -19845.288729 -11894.437259  10746.529207     -6.307993
PR09  10108.782344 -13435.628517  19167.410263    218.875503
PR11 -20961.365603   -708.241929  14539.763772      7.556339
PR12 -23321.180516   9317.799123  -4407.702886     46.899531
PR14   7810.951082   9014.440385 -22535.613263     27.163437
PR15  21907.428748   -106.376267 -13044.131485     74.391780
PR16  23338.450351  -9312.755504   4288.477022     30.555352
PR17   2784.369617  19628.386042  16037.694073    137.280189
PR18   9629.376008   4745.133093  23163.634377    170.466362
PR19  12289.352228 -10633.200377  19672.633032   -297.439536
PR20   7792.551181 -24230.216491   1420.161455   -121.515750
PR21  -2017.019974 -20319.326095 -15302.448071   -148.884153
PR22 -10305.803124  -3708.108521 -23004.953065     -1.122954
PR24  -6390.859847  24667.443560   -832.733839    -78.956856
PR26 -20032.378059 -12933.548433   9097.623412   -115.779742
EOF
